ORBCOMM FM33 [-]        
1 25983U 99065D   24028.60942565  .00001354  00000+0  49749-3 0  9997
2 25983  45.0279 237.1749 0008809  41.4554 348.1997 14.37237837263262
ORBCOMM FM36 [-]        
1 25984U 99065E   24028.21221869  .00001699  00000+0  63885-3 0  9991
2 25984  45.0412 322.7774 0004530 291.2239  68.8125 14.35114984261669
ORBCOMM FM35 [+]        
1 25985U 99065F   24028.08761870  .00001492  00000+0  57102-3 0  9994
2 25985  45.0417 325.7131 0003943   6.3319 353.7578 14.34763826262041
ORBCOMM FM34 [-]        
1 25986U 99065G   24028.19444415  .00001462  00000+0  56104-3 0  9998
2 25986  45.0414 325.7175 0005097 326.2668  33.7855 14.34718977262219
ORBCOMM FM38 [-]        
1 33060U 08031A   24028.54554706  .00002831  00000+0  42812-3 0  9999
2 33060  48.4394 196.2384 0004780  29.9856 330.1330 14.76828978839909
ORBCOMM FM41 [-]        
1 33061U 08031B   24028.59426733  .00002620  00000+0  40066-3 0  9998
2 33061  48.4427 202.3913 0004034  14.1208 100.8093 14.76569126839414
ORBCOMM FM39 [-]        
1 33063U 08031D   24028.59003212  .00001959  00000+0  31416-3 0  9996
2 33063  48.4390 230.2085 0007079 350.1499   9.9274 14.75567097839034
